{"fetched_at":"2026-03-29T02:12:04Z","count":15717,"tles":[{"name":"BEIDOU-3 M7 (C27)","line1":"1 43107U 18003A   26086.73293402 -.00000036  00000+0  00000+0 0  9997","line2":"2 43107  54.3998 305.1552 0005123  76.2108 283.8848  1.86232322 55832","category":"GPS"}]}