{
  "norad_id": 43107,
  "name": "BEIDOU-3 M7",
  "history": [
    {
      "epoch": "2026-03-27T17:35:25.499328",
      "apogee_km": 21542.21577210361,
      "perigee_km": 21513.623226614367,
      "latitude_deg": 38.2178271211585,
      "longitude_deg": -94.9383340801578,
      "semi_major_axis_km": 27906.056499358987,
      "eccentricity": 0.0005123,
      "inclination_deg": 54.3998,
      "raan_deg": 305.1552,
      "arg_perigee_deg": 76.2108,
      "mean_anomaly_deg": 283.8848,
      "mean_motion_rev_day": 1.86232322
    }
  ]
}